FLOCK 4G-1              
1 62666U 25009BK  26068.75951132  .00013534  00000+0  50654-3 0  9995
2 62666  97.4059 151.3158 0003180 323.1401  36.9619 15.27421081 63725
STARLINK-35962          
1 66518U 25265C   26068.58268037  .00026575  00000+0  97121-3 0  9994
2 66518  42.9960 278.8397 0000799 352.4259   7.6581 15.27598219 17090
