[{"OBJECT_NAME":"FLOCK 4G-1","OBJECT_ID":"2025-009BK","EPOCH":"2026-03-09T18:13:41.778912","MEAN_MOTION":15.27421081,"ECCENTRICITY":0.00031801,"INCLINATION":97.4059,"RA_OF_ASC_NODE":151.3158,"ARG_OF_PERICENTER":323.1401,"MEAN_ANOMALY":36.9619,"EPHEMERIS_TYPE":0,"CLASSIFICATION_TYPE":"U","NORAD_CAT_ID":62666,"ELEMENT_SET_NO":999,"REV_AT_EPOCH":6372,"BSTAR":0.00050653644,"MEAN_MOTION_DOT":0.00013534,"MEAN_MOTION_DDOT":0},{"OBJECT_NAME":"STARLINK-35962","OBJECT_ID":"2025-265C","EPOCH":"2026-03-09T13:59:03.583968","MEAN_MOTION":15.27598219,"ECCENTRICITY":7.99e-5,"INCLINATION":42.996,"RA_OF_ASC_NODE":278.8397,"ARG_OF_PERICENTER":352.4259,"MEAN_ANOMALY":7.6581,"EPHEMERIS_TYPE":0,"CLASSIFICATION_TYPE":"U","NORAD_CAT_ID":66518,"ELEMENT_SET_NO":999,"REV_AT_EPOCH":1709,"BSTAR":0.00097121,"MEAN_MOTION_DOT":0.00026575,"MEAN_MOTION_DDOT":0}]
